ONEWEB-0221             
1 48789U 21045Y   26194.17952609  .00000095  00000+0  21836-3 0  9995
2 48789  87.8999 254.0133 0002191 103.6882 256.4493 13.15548668247796
ONEWEB-0213             
1 48790U 21045Z   26194.16843345  .00000126  00000+0  30118-3 0  9990
2 48790  87.8995 254.0192 0002048 108.1820 251.9534 13.15548592247851
ONEWEB-0212             
1 48791U 21045AA  26194.14544454  .00000113  00000+0  26707-3 0  9993
2 48791  87.8989 254.0187 0002119 101.1922 258.9447 13.15547516247848
ONEWEB-0227             
1 48792U 21045AB  26193.68832030  .00000063  00000+0  13451-3 0  9998
2 48792  87.8991 254.1094 0002114 101.5691 258.5677 13.15547682247735
ONEWEB-0226             
1 48793U 21045AC  26193.68197887  .00000163  00000+0  39817-3 0  9998
2 48793  87.8985 254.1160 0001956 107.4745 252.6599 13.15547764247707
ONEWEB-0224             
1 48794U 21045AD  26194.17794278 -.00000003  00000+0 -42286-4 0  9991
2 48794  87.8989 254.0485 0002942  99.4261 260.7202 13.15548630247692
ONEWEB-0233             
1 48795U 21045AE  26194.18255232 -.00000030  00000+0 -11494-3 0  9991
2 48795  87.8985 254.0549 0002227 105.2914 254.8462 13.15550671247710
ONEWEB-0190             
1 48796U 21045AF  26193.71367227  .00000065  00000+0  13812-3 0  9990
2 48796  87.8992 254.1124 0002174 117.2161 242.9191 13.15548656247725
ONEWEB-0236             
1 48797U 21045AG  26193.65504762 -.00000093  00000+0 -28103-3 0  9993
2 48797  87.8984 254.1319 0002156  95.2359 264.9017 13.15548119247609
ONEWEB-0248             
1 48798U 21045AH  26193.66771783 -.00000045  00000+0 -15477-3 0  9991
2 48798  87.8996 254.1153 0002404 108.5777 251.5614 13.15548836247765
ONEWEB-0225             
1 48799U 21045AJ  26194.14625251  .00000151  00000+0  36727-3 0  9991
2 48799  87.8992 254.0270 0002193 113.2136 246.9226 13.15548124247833
ONEWEB-0215             
1 48800U 21045AK  26193.65979386 -.00000106  00000+0 -31681-3 0  9996
2 48800  87.9000 254.1074 0002397 111.9675 248.1710 13.15549106247641
ONEWEB-0216             
1 48801U 21045AL  26193.66930694 -.00000038  00000+0 -13632-3 0  9997
2 48801  87.8984 254.1212 0001953  98.0014 262.1338 13.15547853247655
ONEWEB-0239             
1 48802U 21045AM  26193.67406193 -.00000067  00000+0 -21314-3 0  9999
2 48802  87.8979 254.1228 0002520 114.2785 245.8609 13.15548366247697
FENGYUN 4B              
1 48808U 21047A   26194.29654177 -.00000331  00000+0  00000+0 0  9991
2 48808   0.2151  79.7291 0005778 272.9281 149.8180  1.00263746 18832
SXM-8                   
1 48838U 21049A   26194.14173336 -.00000207  00000+0  00000+0 0  9995
2 48838   0.0171  42.0890 0005434 348.2910 226.5183  1.00271054 18846
2021-050D               
1 48843U 21050D   26194.28012661  .00004138  00000+0  17580-3 0  9992
2 48843  97.3337 269.7239 0006172 158.5622 201.5875 15.23584693282932
NAVSTAR 81 (USA 319)    
1 48859U 21054A   26193.93300233 -.00000091  00000+0  00000+0 0  9999
2 48859  55.1610 331.4250 0026406 228.5393 130.0348  2.00567088 37265
YAOGAN-30 10A           
1 48860U 21055A   26193.91448366  .00001542  00000+0  11504-3 0  9996
2 48860  34.9964 355.4200 0004604 295.1769  64.8462 15.02793080277051
YAOGAN-30 10B           
1 48861U 21055B   26193.89339487  .00001437  00000+0  10739-3 0  9999
2 48861  34.9961 355.1861 0004975 301.3985  58.6236 15.02781949277040
YAOGAN-30 10C           
1 48863U 21055D   26193.92560884  .00001464  00000+0  10937-3 0  9992
2 48863  34.9966 354.6490 0003148  14.3561 345.7237 15.02790709276764
TIANQI-14               
1 48864U 21055E   26194.30790680  .00003065  00000+0  16721-3 0  9991
2 48864  34.9992 276.5121 0005024 196.7337 163.3210 15.13914360277688
COSMOS 2550             
1 48865U 21056A   26194.30301346  .00000568  00000+0  23091-4 0  9994
2 48865  67.1435  20.9070 0008486 270.6818  89.3364 15.33813733282726
STARLINK-3005           
1 48881U 21059C   26194.32191815 -.00003488  00000+0 -26707-3 0  9997
2 48881  97.4560 318.5081 0004483 177.9941 182.1303 15.01284867277652
TYVAK-0173              
1 48892U 21059P   26193.78874564  .00000875  00000+0  11440-3 0  9990
2 48892  96.0075 263.7816 0007401 309.8537  50.2030 14.81967390272032
MANDRAKE 2 ABLE         
1 48907U 21059AE  26193.97033375  .00016128  00000+0  23320-3 0  9993
2 48907  97.7023  25.7406 0003682 243.6609 116.4267 15.56011596281132
MANDRAKE 2 BAKER        
1 48908U 21059AF  26193.50346024  .00020477  00000+0  24644-3 0  9993
2 48908  97.6985  28.2904 0002461 231.4381 128.6655 15.60865564281241
PACE-1                  
1 48909U 21059AG  26193.51510632  .00088201  00000+0  37892-3 0  9991
2 48909  97.6724  34.6073 0003426 186.8561 173.2662 15.84812920281806
YAM-3                   
1 48915U 21059AN  26194.29744645  .00007526  00000+0  14038-3 0  9995
2 48915  97.6990  22.9701 0003844 251.9526 108.1306 15.49119558281030
FARADAY_PHOENIX         
1 48924U 21059AX  26193.51392935  .00147195  00000+0  58598-3 0  9996
2 48924  97.6770  34.5090 0005893 204.9834 155.1151 15.86233591281666
